SHENZHOU-21 (SZ-21)     
1 66263U 25246A   25310.84814980  .00035789  00000+0  42324-3 0  9994
2 66263  41.4667 234.6537 0005753 334.9665  25.0894 15.60542316258139
CZ-2F R/B               
1 66264U 25246B   25310.92084750  .01368782  76193-5  61747-3 0  9993
2 66264  41.4615 231.5530 0080848 174.2047 185.9763 16.13271454  1014
